GOSAT-GW (IBUKI GW)     
1 64694U 25141A   26201.59906400  .00000297  00000+0  60819-4 0  9991
2 64694  98.0564 138.3734 0001430  86.4810 273.6558 14.67554701 56745
IONOSFERA-M 3           
1 64876U 25155A   26201.61002169  .00000014  00000+0  25951-4 0  9995
2 64876  98.6044 162.6773 0002419 104.2519 255.8927 14.21491362 51157
IONOSFERA-M 4           
1 64877U 25155B   26201.64480550  .00000016  00000+0  27047-4 0  9993
2 64877  98.6043 162.6283 0001894  94.0466 266.0928 14.21493804 51154
MICROCARB               
1 64899U 25156A   26201.17004671  .00000281  00000+0  51611-4 0  9990
2 64899  98.0071 277.8021 0017996 155.3183 204.8890 14.72888403 52821
CO3D 3                  
1 64900U 25156B   26201.55978475  .00002471  00000+0  11724-3 0  9990
2 64900  97.4331 279.7734 0001726  90.4724 269.6709 15.20195701 54604
CO3D 4                  
1 64901U 25156C   26201.55993786  .00001635  00000+0  78634-4 0  9998
2 64901  97.4336 279.7731 0001868 142.4125 217.7241 15.20192398 54601
CO3D 2                  
1 64902U 25156D   26201.52659444  .00002337  00000+0  11103-3 0  9993
2 64902  97.4332 279.6393 0001178  92.0776 268.0594 15.20201512 54594
CO3D 1                  
1 64903U 25156E   26201.52674831  .00002414  00000+0  11460-3 0  9993
2 64903  97.4331 279.6395 0001336 102.5352 257.6033 15.20203530 54593
PRSC-S1                 
1 65055U 25164A   26201.60887654  .00002695  00000+0  19018-3 0  9997
2 65055  41.1302  99.5463 0007461 230.6794 129.3359 15.06662965 53476
CSG-3                   
1 67304U 26001A   26201.41422676  .00000150  00000+0  25423-4 0  9997
2 67304  97.8898  24.5366 0001469  93.0499 267.0882 14.82165425 29384
PRSC-E03                
1 68835U 26092A   26201.45659774  .00001074  00000+0  77985-4 0  9998
2 68835  38.0004 253.4742 0005006 283.2867  76.7337 15.06821808 12972
